[{"OBJECT_NAME":"STARLINK-31132","OBJECT_ID":"2024-011N","EPOCH":"2026-03-09T20:23:49.567200","MEAN_MOTION":15.30186472,"ECCENTRICITY":0.00011845,"INCLINATION":53.1604,"RA_OF_ASC_NODE":282.7891,"ARG_OF_PERICENTER":105.6376,"MEAN_ANOMALY":254.4755,"EPHEMERIS_TYPE":0,"CLASSIFICATION_TYPE":"U","NORAD_CAT_ID":58777,"ELEMENT_SET_NO":999,"REV_AT_EPOCH":12158,"BSTAR":2.538752e-6,"MEAN_MOTION_DOT":-2.84e-6,"MEAN_MOTION_DDOT":0},{"OBJECT_NAME":"SL-12 DEB","OBJECT_ID":"1987-079Q","EPOCH":"2026-03-08T22:01:57.538848","MEAN_MOTION":5.05706133,"ECCENTRICITY":0.52644473,"INCLINATION":64.9976,"RA_OF_ASC_NODE":0.685,"ARG_OF_PERICENTER":43.8732,"MEAN_ANOMALY":347.5725,"EPHEMERIS_TYPE":0,"CLASSIFICATION_TYPE":"U","NORAD_CAT_ID":25805,"ELEMENT_SET_NO":999,"REV_AT_EPOCH":4822,"BSTAR":0.012439625,"MEAN_MOTION_DOT":0.0001606,"MEAN_MOTION_DDOT":0}]
